ORBCOMM FM05            
1 25117U 97084F   25036.91226973  .00003468  00000+0  10223-2 0  9999
2 25117  45.0141 278.0176 0001501 291.2186  68.8504 14.45125203421612
ORBCOMM FM06            
1 25118U 97084G   25036.92018059  .00003131  00000+0  92399-3 0  9997
2 25118  45.0135 277.8729 0000658 326.2679  48.5798 14.45291005422553
ORBCOMM FM07            
1 25119U 97084H   25036.92824430  .00003337  00000+0  98351-3 0  9998
2 25119  45.0130 278.5795 0002131 275.1957  84.8651 14.45218835422527
ORBCOMM FM03            
1 25158U 98007B   25037.70107105  .00002419  00000+0  90262-3 0  9990
2 25158 107.9702 227.6358 0043748 118.7175 241.8371 14.33966014405471
ORBCOMM FM04            
1 25159U 98007C   25037.56900948  .00002304  00000+0  85935-3 0  9995
2 25159 107.9690 230.4969 0039414 116.4249 244.0944 14.34229878405494
ORBCOMM FM17            
1 25413U 98046A   25037.57578695  .00002419  00000+0  89728-3 0  9993
2 25413  44.9930 153.8350 0003741 251.9105 108.1334 14.34625591384419
ORBCOMM FM18            
1 25414U 98046B   25037.55763416  .00002574  00000+0  89114-3 0  9990
2 25414  44.9929  74.7274 0005801 318.6983  41.3426 14.37894414385616
ORBCOMM FM19            
1 25415U 98046C   25037.58230200  .00002842  00000+0  98280-3 0  9996
2 25415  44.9939  76.4044 0004924 307.6745 186.4759 14.37707118385604
