<?xml version="1.0" encoding="UTF-8"?>
<ndm xmlns:xsi="http://www.w3.org/2001/XMLSchema-instance" xsi:noNamespaceSchemaLocation="https://sanaregistry.org/r/ndmxml_unqualified/ndmxml-2.0.0-master-2.0.xsd">
<omm id="CCSDS_OMM_VERS" version="2.0">
<header><CREATION_DATE/><ORIGINATOR/></header><body><segment><metadata><OBJECT_NAME>ORBCOMM FM05</OBJECT_NAME><OBJECT_ID>1997-084F</OBJECT_ID><CENTER_NAME>EARTH</CENTER_NAME><REF_FRAME>TEME</REF_FRAME><TIME_SYSTEM>UTC</TIME_SYSTEM><MEAN_ELEMENT_THEORY>SGP4</MEAN_ELEMENT_THEORY></metadata><data><meanElements><EPOCH>2025-02-05T21:53:40.104672</EPOCH><MEAN_MOTION>14.45125203</MEAN_MOTION><ECCENTRICITY>.0001501</ECCENTRICITY><INCLINATION>45.0141</INCLINATION><RA_OF_ASC_NODE>278.0176</RA_OF_ASC_NODE><ARG_OF_PERICENTER>291.2186</ARG_OF_PERICENTER><MEAN_ANOMALY>68.8504</MEAN_ANOMALY></meanElements><tleParameters><EPHEMERIS_TYPE>0</EPHEMERIS_TYPE><CLASSIFICATION_TYPE>U</CLASSIFICATION_TYPE><NORAD_CAT_ID>25117</NORAD_CAT_ID><ELEMENT_SET_NO>999</ELEMENT_SET_NO><REV_AT_EPOCH>42161</REV_AT_EPOCH><BSTAR>.10223E-2</BSTAR><MEAN_MOTION_DOT>.3468E-4</MEAN_MOTION_DOT><MEAN_MOTION_DDOT>0</MEAN_MOTION_DDOT></tleParameters></data></segment></body></omm>
<omm id="CCSDS_OMM_VERS" version="2.0">
<header><CREATION_DATE/><ORIGINATOR/></header><body><segment><metadata><OBJECT_NAME>ORBCOMM FM06</OBJECT_NAME><OBJECT_ID>1997-084G</OBJECT_ID><CENTER_NAME>EARTH</CENTER_NAME><REF_FRAME>TEME</REF_FRAME><TIME_SYSTEM>UTC</TIME_SYSTEM><MEAN_ELEMENT_THEORY>SGP4</MEAN_ELEMENT_THEORY></metadata><data><meanElements><EPOCH>2025-02-05T22:05:03.602976</EPOCH><MEAN_MOTION>14.45291005</MEAN_MOTION><ECCENTRICITY>.0000658</ECCENTRICITY><INCLINATION>45.0135</INCLINATION><RA_OF_ASC_NODE>277.8729</RA_OF_ASC_NODE><ARG_OF_PERICENTER>326.2679</ARG_OF_PERICENTER><MEAN_ANOMALY>48.5798</MEAN_ANOMALY></meanElements><tleParameters><EPHEMERIS_TYPE>0</EPHEMERIS_TYPE><CLASSIFICATION_TYPE>U</CLASSIFICATION_TYPE><NORAD_CAT_ID>25118</NORAD_CAT_ID><ELEMENT_SET_NO>999</ELEMENT_SET_NO><REV_AT_EPOCH>42255</REV_AT_EPOCH><BSTAR>.92399E-3</BSTAR><MEAN_MOTION_DOT>.3131E-4</MEAN_MOTION_DOT><MEAN_MOTION_DDOT>0</MEAN_MOTION_DDOT></tleParameters></data></segment></body></omm>
<omm id="CCSDS_OMM_VERS" version="2.0">
<header><CREATION_DATE/><ORIGINATOR/></header><body><segment><metadata><OBJECT_NAME>ORBCOMM FM07</OBJECT_NAME><OBJECT_ID>1997-084H</OBJECT_ID><CENTER_NAME>EARTH</CENTER_NAME><REF_FRAME>TEME</REF_FRAME><TIME_SYSTEM>UTC</TIME_SYSTEM><MEAN_ELEMENT_THEORY>SGP4</MEAN_ELEMENT_THEORY></metadata><data><meanElements><EPOCH>2025-02-05T22:16:40.307520</EPOCH><MEAN_MOTION>14.45218835</MEAN_MOTION><ECCENTRICITY>.0002131</ECCENTRICITY><INCLINATION>45.0130</INCLINATION><RA_OF_ASC_NODE>278.5795</RA_OF_ASC_NODE><ARG_OF_PERICENTER>275.1957</ARG_OF_PERICENTER><MEAN_ANOMALY>84.8651</MEAN_ANOMALY></meanElements><tleParameters><EPHEMERIS_TYPE>0</EPHEMERIS_TYPE><CLASSIFICATION_TYPE>U</CLASSIFICATION_TYPE><NORAD_CAT_ID>25119</NORAD_CAT_ID><ELEMENT_SET_NO>999</ELEMENT_SET_NO><REV_AT_EPOCH>42252</REV_AT_EPOCH><BSTAR>.98351E-3</BSTAR><MEAN_MOTION_DOT>.3337E-4</MEAN_MOTION_DOT><MEAN_MOTION_DDOT>0</MEAN_MOTION_DDOT></tleParameters></data></segment></body></omm>
<omm id="CCSDS_OMM_VERS" version="2.0">
<header><CREATION_DATE/><ORIGINATOR/></header><body><segment><metadata><OBJECT_NAME>ORBCOMM FM03</OBJECT_NAME><OBJECT_ID>1998-007B</OBJECT_ID><CENTER_NAME>EARTH</CENTER_NAME><REF_FRAME>TEME</REF_FRAME><TIME_SYSTEM>UTC</TIME_SYSTEM><MEAN_ELEMENT_THEORY>SGP4</MEAN_ELEMENT_THEORY></metadata><data><meanElements><EPOCH>2025-02-06T16:49:32.538720</EPOCH><MEAN_MOTION>14.33966014</MEAN_MOTION><ECCENTRICITY>.0043748</ECCENTRICITY><INCLINATION>107.9702</INCLINATION><RA_OF_ASC_NODE>227.6358</RA_OF_ASC_NODE><ARG_OF_PERICENTER>118.7175</ARG_OF_PERICENTER><MEAN_ANOMALY>241.8371</MEAN_ANOMALY></meanElements><tleParameters><EPHEMERIS_TYPE>0</EPHEMERIS_TYPE><CLASSIFICATION_TYPE>U</CLASSIFICATION_TYPE><NORAD_CAT_ID>25158</NORAD_CAT_ID><ELEMENT_SET_NO>999</ELEMENT_SET_NO><REV_AT_EPOCH>40547</REV_AT_EPOCH><BSTAR>.90262E-3</BSTAR><MEAN_MOTION_DOT>.2419E-4</MEAN_MOTION_DOT><MEAN_MOTION_DDOT>0</MEAN_MOTION_DDOT></tleParameters></data></segment></body></omm>
<omm id="CCSDS_OMM_VERS" version="2.0">
<header><CREATION_DATE/><ORIGINATOR/></header><body><segment><metadata><OBJECT_NAME>ORBCOMM FM04</OBJECT_NAME><OBJECT_ID>1998-007C</OBJECT_ID><CENTER_NAME>EARTH</CENTER_NAME><REF_FRAME>TEME</REF_FRAME><TIME_SYSTEM>UTC</TIME_SYSTEM><MEAN_ELEMENT_THEORY>SGP4</MEAN_ELEMENT_THEORY></metadata><data><meanElements><EPOCH>2025-02-06T13:39:22.419072</EPOCH><MEAN_MOTION>14.34229878</MEAN_MOTION><ECCENTRICITY>.0039414</ECCENTRICITY><INCLINATION>107.9690</INCLINATION><RA_OF_ASC_NODE>230.4969</RA_OF_ASC_NODE><ARG_OF_PERICENTER>116.4249</ARG_OF_PERICENTER><MEAN_ANOMALY>244.0944</MEAN_ANOMALY></meanElements><tleParameters><EPHEMERIS_TYPE>0</EPHEMERIS_TYPE><CLASSIFICATION_TYPE>U</CLASSIFICATION_TYPE><NORAD_CAT_ID>25159</NORAD_CAT_ID><ELEMENT_SET_NO>999</ELEMENT_SET_NO><REV_AT_EPOCH>40549</REV_AT_EPOCH><BSTAR>.85935E-3</BSTAR><MEAN_MOTION_DOT>.2304E-4</MEAN_MOTION_DOT><MEAN_MOTION_DDOT>0</MEAN_MOTION_DDOT></tleParameters></data></segment></body></omm>
<omm id="CCSDS_OMM_VERS" version="2.0">
<header><CREATION_DATE/><ORIGINATOR/></header><body><segment><metadata><OBJECT_NAME>ORBCOMM FM17</OBJECT_NAME><OBJECT_ID>1998-046A</OBJECT_ID><CENTER_NAME>EARTH</CENTER_NAME><REF_FRAME>TEME</REF_FRAME><TIME_SYSTEM>UTC</TIME_SYSTEM><MEAN_ELEMENT_THEORY>SGP4</MEAN_ELEMENT_THEORY></metadata><data><meanElements><EPOCH>2025-02-06T13:49:07.992480</EPOCH><MEAN_MOTION>14.34625591</MEAN_MOTION><ECCENTRICITY>.0003741</ECCENTRICITY><INCLINATION>44.9930</INCLINATION><RA_OF_ASC_NODE>153.8350</RA_OF_ASC_NODE><ARG_OF_PERICENTER>251.9105</ARG_OF_PERICENTER><MEAN_ANOMALY>108.1334</MEAN_ANOMALY></meanElements><tleParameters><EPHEMERIS_TYPE>0</EPHEMERIS_TYPE><CLASSIFICATION_TYPE>U</CLASSIFICATION_TYPE><NORAD_CAT_ID>25413</NORAD_CAT_ID><ELEMENT_SET_NO>999</ELEMENT_SET_NO><REV_AT_EPOCH>38441</REV_AT_EPOCH><BSTAR>.89728E-3</BSTAR><MEAN_MOTION_DOT>.2419E-4</MEAN_MOTION_DOT><MEAN_MOTION_DDOT>0</MEAN_MOTION_DDOT></tleParameters></data></segment></body></omm>
<omm id="CCSDS_OMM_VERS" version="2.0">
<header><CREATION_DATE/><ORIGINATOR/></header><body><segment><metadata><OBJECT_NAME>ORBCOMM FM18</OBJECT_NAME><OBJECT_ID>1998-046B</OBJECT_ID><CENTER_NAME>EARTH</CENTER_NAME><REF_FRAME>TEME</REF_FRAME><TIME_SYSTEM>UTC</TIME_SYSTEM><MEAN_ELEMENT_THEORY>SGP4</MEAN_ELEMENT_THEORY></metadata><data><meanElements><EPOCH>2025-02-06T13:22:59.591424</EPOCH><MEAN_MOTION>14.37894414</MEAN_MOTION><ECCENTRICITY>.0005801</ECCENTRICITY><INCLINATION>44.9929</INCLINATION><RA_OF_ASC_NODE>74.7274</RA_OF_ASC_NODE><ARG_OF_PERICENTER>318.6983</ARG_OF_PERICENTER><MEAN_ANOMALY>41.3426</MEAN_ANOMALY></meanElements><tleParameters><EPHEMERIS_TYPE>0</EPHEMERIS_TYPE><CLASSIFICATION_TYPE>U</CLASSIFICATION_TYPE><NORAD_CAT_ID>25414</NORAD_CAT_ID><ELEMENT_SET_NO>999</ELEMENT_SET_NO><REV_AT_EPOCH>38561</REV_AT_EPOCH><BSTAR>.89114E-3</BSTAR><MEAN_MOTION_DOT>.2574E-4</MEAN_MOTION_DOT><MEAN_MOTION_DDOT>0</MEAN_MOTION_DDOT></tleParameters></data></segment></body></omm>
<omm id="CCSDS_OMM_VERS" version="2.0">
<header><CREATION_DATE/><ORIGINATOR/></header><body><segment><metadata><OBJECT_NAME>ORBCOMM FM19</OBJECT_NAME><OBJECT_ID>1998-046C</OBJECT_ID><CENTER_NAME>EARTH</CENTER_NAME><REF_FRAME>TEME</REF_FRAME><TIME_SYSTEM>UTC</TIME_SYSTEM><MEAN_ELEMENT_THEORY>SGP4</MEAN_ELEMENT_THEORY></metadata><data><meanElements><EPOCH>2025-02-06T13:58:30.892800</EPOCH><MEAN_MOTION>14.37707118</MEAN_MOTION><ECCENTRICITY>.0004924</ECCENTRICITY><INCLINATION>44.9939</INCLINATION><RA_OF_ASC_NODE>76.4044</RA_OF_ASC_NODE><ARG_OF_PERICENTER>307.6745</ARG_OF_PERICENTER><MEAN_ANOMALY>186.4759</MEAN_ANOMALY></meanElements><tleParameters><EPHEMERIS_TYPE>0</EPHEMERIS_TYPE><CLASSIFICATION_TYPE>U</CLASSIFICATION_TYPE><NORAD_CAT_ID>25415</NORAD_CAT_ID><ELEMENT_SET_NO>999</ELEMENT_SET_NO><REV_AT_EPOCH>38560</REV_AT_EPOCH><BSTAR>.9828E-3</BSTAR><MEAN_MOTION_DOT>.2842E-4</MEAN_MOTION_DOT><MEAN_MOTION_DDOT>0</MEAN_MOTION_DDOT></tleParameters></data></segment></body></omm>

</ndm>
